start=new Date('2023-06-30T00:00:00.000Z').valueOf();
sats=[{"TLE_LINE2":"2 52849  53.2168 124.0485 0001424  91.9837 268.1319 15.08843928 57771","SITE":"AFETR","MEAN_ELEMENT_THEORY":"SGP4","RCS_SIZE":"LARGE","OBJECT_NAME":"STARLINK-4197","MEAN_ANOMALY":"268.1319","PERIAPSIS":"538.748","MEAN_MOTION":"15.08843928","DECAY_DATE":null,"COUNTRY_CODE":"US","LAUNCH_DATE":"2022-06-17","EPHEMERIS_TYPE":"0","RA_OF_ASC_NODE":"124.0485","ELEMENT_SET_NO":"999","OBJECT_ID":"2022-062V","EPOCH":"2023-06-29T02:44:48.443712","TLE_LINE1":"1 52849U 22062V   23180.11444958  .00001751  00000-0  12804-3 0  9992","REF_FRAME":"TEME","CENTER_NAME":"EARTH","GP_ID":"234619960","BSTAR":"0.00012804000000","CLASSIFICATION_TYPE":"U","APOAPSIS":"540.718","NORAD_CAT_ID":"52849","REV_AT_EPOCH":"5777","ECCENTRICITY":"0.00014240","MEAN_MOTION_DOT":"0.00001751","INCLINATION":"53.2168","SEMIMAJOR_AXIS":"6917.868","FILE":"3945533","MEAN_MOTION_DDOT":"0.0000000000000","ARG_OF_PERICENTER":"91.9837","OBJECT_TYPE":"PAYLOAD","TIME_SYSTEM":"UTC","PERIOD":"95.437"},{"ECCENTRICITY":"0.00011140","INCLINATION":"53.2164","MEAN_MOTION_DOT":"0.00001217","SEMIMAJOR_AXIS":"6917.881","APOAPSIS":"540.517","NORAD_CAT_ID":"52850","REV_AT_EPOCH":"5765","CLASSIFICATION_TYPE":"U","GP_ID":"234619488","BSTAR":"0.00009452900000","PERIOD":"95.438","ARG_OF_PERICENTER":"93.5122","TIME_SYSTEM":"UTC","OBJECT_TYPE":"PAYLOAD","FILE":"3945535","MEAN_MOTION_DDOT":"0.0000000000000","MEAN_MOTION":"15.08839725","DECAY_DATE":null,"OBJECT_NAME":"STARLINK-4187","PERIAPSIS":"538.976","MEAN_ANOMALY":"266.5997","TLE_LINE2":"2 52850  53.2164 133.7057 0001114  93.5122 266.5997 15.08839725 57653","SITE":"AFETR","MEAN_ELEMENT_THEORY":"SGP4","RCS_SIZE":"LARGE","REF_FRAME":"TEME","CENTER_NAME":"EARTH","EPOCH":"2023-06-29T04:34:45.238368","TLE_LINE1":"1 52850U 22062W   23180.19080137  .00001217  00000-0  94529-4 0  9999","LAUNCH_DATE":"2022-06-17","RA_OF_ASC_NODE":"133.7057","EPHEMERIS_TYPE":"0","ELEMENT_SET_NO":"999","OBJECT_ID":"2022-062W","COUNTRY_CODE":"US"},{"GP_ID":"234602146","BSTAR":"0.00004003600000","CLASSIFICATION_TYPE":"U","APOAPSIS":"540.581","NORAD_CAT_ID":"52851","REV_AT_EPOCH":"5762","ECCENTRICITY":"0.00012030","MEAN_MOTION_DOT":"0.00000349","INCLINATION":"53.2162","SEMIMAJOR_AXIS":"6917.884","FILE":"3944804","MEAN_MOTION_DDOT":"0.0000000000000","ARG_OF_PERICENTER":"90.8880","TIME_SYSTEM":"UTC","OBJECT_TYPE":"PAYLOAD","PERIOD":"95.438","TLE_LINE2":"2 52851  53.2162 128.5287 0001203  90.8880 269.2250 15.08838964 57622","SITE":"AFETR","MEAN_ELEMENT_THEORY":"SGP4","RCS_SIZE":"LARGE","OBJECT_NAME":"STARLINK-3809","MEAN_ANOMALY":"269.2250","PERIAPSIS":"538.916","MEAN_MOTION":"15.08838964","DECAY_DATE":null,"COUNTRY_CODE":"US","RA_OF_ASC_NODE":"128.5287","LAUNCH_DATE":"2022-06-17","EPHEMERIS_TYPE":"0","OBJECT_ID":"2022-062X","ELEMENT_SET_NO":"999","EPOCH":"2023-06-28T02:48:42.885792","TLE_LINE1":"1 52851U 22062X   23179.11716303  .00000349  00000-0  40036-4 0  9990","REF_FRAME":"TEME","CENTER_NAME":"EARTH"},{"RA_OF_ASC_NODE":"127.8958","LAUNCH_DATE":"2022-06-17","EPHEMERIS_TYPE":"0","OBJECT_ID":"2022-062Y","ELEMENT_SET_NO":"999","COUNTRY_CODE":"US","REF_FRAME":"TEME","CENTER_NAME":"EARTH","EPOCH":"2023-06-28T06:10:04.838880","TLE_LINE1":"1 52852U 22062Y   23179.25700045  .00000231  00000-0  32616-4 0  9997","OBJECT_NAME":"STARLINK-4184","PERIAPSIS":"538.911","MEAN_ANOMALY":"272.4843","TLE_LINE2":"2 52852  53.2171 127.8958 0001197  87.6287 272.4843 15.08841922 57641","SITE":"AFETR","MEAN_ELEMENT_THEORY":"SGP4","RCS_SIZE":"LARGE","MEAN_MOTION":"15.08841922","DECAY_DATE":null,"FILE":"3945011","MEAN_MOTION_DDOT":"0.0000000000000","PERIOD":"95.437","ARG_OF_PERICENTER":"87.6287","TIME_SYSTEM":"UTC","OBJECT_TYPE":"PAYLOAD","CLASSIFICATION_TYPE":"U","GP_ID":"234607228","BSTAR":"0.00003261600000","ECCENTRICITY":"0.00011970","MEAN_MOTION_DOT":"0.00000231","INCLINATION":"53.2171","SEMIMAJOR_AXIS":"6917.875","APOAPSIS":"540.568","NORAD_CAT_ID":"52852","REV_AT_EPOCH":"5764"},{"COUNTRY_CODE":"US","OBJECT_ID":"2022-062Z","ELEMENT_SET_NO":"999","LAUNCH_DATE":"2022-06-17","EPHEMERIS_TYPE":"0","RA_OF_ASC_NODE":"123.7846","EPOCH":"2023-06-29T04:00:21.297024","TLE_LINE1":"1 52853U 22062Z   23180.16691316  .00001232  00000-0  95452-4 0  9999","CENTER_NAME":"EARTH","REF_FRAME":"TEME","MEAN_ELEMENT_THEORY":"SGP4","RCS_SIZE":"LARGE","TLE_LINE2":"2 52853  53.2166 123.7846 0000982  85.2152 274.8953 15.08841438 57788","SITE":"AFETR","OBJECT_NAME":"STARLINK-4189","PERIAPSIS":"539.062","MEAN_ANOMALY":"274.8953","MEAN_MOTION":"15.08841438","DECAY_DATE":null,"FILE":"3945533","MEAN_MOTION_DDOT":"0.0000000000000","TIME_SYSTEM":"UTC","OBJECT_TYPE":"PAYLOAD","ARG_OF_PERICENTER":"85.2152","PERIOD":"95.437","BSTAR":"0.00009545200000","GP_ID":"234619452","CLASSIFICATION_TYPE":"U","NORAD_CAT_ID":"52853","REV_AT_EPOCH":"5778","APOAPSIS":"540.420","SEMIMAJOR_AXIS":"6917.876","ECCENTRICITY":"0.00009820","MEAN_MOTION_DOT":"0.00001232","INCLINATION":"53.2166"},{"COUNTRY_CODE":"US","ELEMENT_SET_NO":"999","OBJECT_ID":"2022-062AA","LAUNCH_DATE":"2022-06-17","RA_OF_ASC_NODE":"124.0812","EPHEMERIS_TYPE":"0","TLE_LINE1":"1 52854U 22062AA  23180.10708791 -.00000234  00000-0  33929-5 0  9994","EPOCH":"2023-06-29T02:34:12.395424","CENTER_NAME":"EARTH","REF_FRAME":"TEME","RCS_SIZE":"LARGE","MEAN_ELEMENT_THEORY":"SGP4","SITE":"AFETR","TLE_LINE2":"2 52854  53.2167 124.0812 0001308  93.5982 266.5159 15.08834439 57771","PERIAPSIS":"538.858","MEAN_ANOMALY":"266.5159","OBJECT_NAME":"STARLINK-4204","DECAY_DATE":null,"MEAN_MOTION":"15.08834439","MEAN_MOTION_DDOT":"0.0000000000000","FILE":"3945533","OBJECT_TYPE":"PAYLOAD","TIME_SYSTEM":"UTC","ARG_OF_PERICENTER":"93.5982","PERIOD":"95.438","BSTAR":"0.00000339290000","GP_ID":"234619456","CLASSIFICATION_TYPE":"U","REV_AT_EPOCH":"5777","NORAD_CAT_ID":"52854","APOAPSIS":"540.667","SEMIMAJOR_AXIS":"6917.897","MEAN_MOTION_DOT":"-0.00000234","INCLINATION":"53.2167","ECCENTRICITY":"0.00013080"},{"MEAN_MOTION_DDOT":"0.0000000000000","FILE":"3945533","ARG_OF_PERICENTER":"93.2551","TIME_SYSTEM":"UTC","OBJECT_TYPE":"PAYLOAD","PERIOD":"95.438","GP_ID":"234619958","BSTAR":"0.00009552500000","CLASSIFICATION_TYPE":"U","APOAPSIS":"540.537","REV_AT_EPOCH":"5778","NORAD_CAT_ID":"52855","MEAN_MOTION_DOT":"0.00001233","INCLINATION":"53.2164","ECCENTRICITY":"0.00011430","SEMIMAJOR_AXIS":"6917.881","COUNTRY_CODE":"US","RA_OF_ASC_NODE":"123.8357","LAUNCH_DATE":"2022-06-17","EPHEMERIS_TYPE":"0","ELEMENT_SET_NO":"999","OBJECT_ID":"2022-062AB","TLE_LINE1":"1 52855U 22062AB  23180.16228340  .00001233  00000-0  95525-4 0  9996","EPOCH":"2023-06-29T03:53:41.285760","REF_FRAME":"TEME","CENTER_NAME":"EARTH","SITE":"AFETR","TLE_LINE2":"2 52855  53.2164 123.8357 0001143  93.2551 266.8572 15.08839831 57780","RCS_SIZE":"LARGE","MEAN_ELEMENT_THEORY":"SGP4","PERIAPSIS":"538.955","MEAN_ANOMALY":"266.8572","OBJECT_NAME":"STARLINK-4209","DECAY_DATE":null,"MEAN_MOTION":"15.08839831"},{"TIME_SYSTEM":"UTC","OBJECT_TYPE":"PAYLOAD","ARG_OF_PERICENTER":"88.3337","PERIOD":"95.437","MEAN_MOTION_DDOT":"0.0000000000000","FILE":"3945533","REV_AT_EPOCH":"5778","NORAD_CAT_ID":"52856","APOAPSIS":"540.627","SEMIMAJOR_AXIS":"6917.876","MEAN_MOTION_DOT":"0.00000716","INCLINATION":"53.2159","ECCENTRICITY":"0.00012800","BSTAR":"0.00006309800000","GP_ID":"234619957","CLASSIFICATION_TYPE":"U","TLE_LINE1":"1 52856U 22062AC  23180.16596293  .00000716  00000-0  63098-4 0  9997","EPOCH":"2023-06-29T03:58:59.197152","CENTER_NAME":"EARTH","REF_FRAME":"TEME","COUNTRY_CODE":"US","ELEMENT_SET_NO":"999","OBJECT_ID":"2022-062AC","LAUNCH_DATE":"2022-06-17","EPHEMERIS_TYPE":"0","RA_OF_ASC_NODE":"123.8185","DECAY_DATE":null,"MEAN_MOTION":"15.08841391","RCS_SIZE":"LARGE","MEAN_ELEMENT_THEORY":"SGP4","TLE_LINE2":"2 52856  53.2159 123.8185 0001280  88.3337 271.7802 15.08841391 57788","SITE":"AFETR","MEAN_ANOMALY":"271.7802","PERIAPSIS":"538.856","OBJECT_NAME":"STARLINK-4201"},{"PERIOD":"95.438","OBJECT_TYPE":"PAYLOAD","TIME_SYSTEM":"UTC","ARG_OF_PERICENTER":"97.6463","MEAN_MOTION_DDOT":"0.0000000000000","FILE":"3945534","SEMIMAJOR_AXIS":"6917.895","INCLINATION":"53.2160","MEAN_MOTION_DOT":"0.00000365","ECCENTRICITY":"0.00010730","REV_AT_EPOCH":"5778","NORAD_CAT_ID":"52857","APOAPSIS":"540.502","CLASSIFICATION_TYPE":"U","BSTAR":"0.00004102900000","GP_ID":"234619475","CENTER_NAME":"EARTH","REF_FRAME":"TEME","TLE_LINE1":"1 52857U 22062AD  23180.15492549  .00000365  00000-0  41029-4 0  9996","EPOCH":"2023-06-29T03:43:05.562336","OBJECT_ID":"2022-062AD","ELEMENT_SET_NO":"999","LAUNCH_DATE":"2022-06-17","EPHEMERIS_TYPE":"0","RA_OF_ASC_NODE":"123.8682","COUNTRY_CODE":"US","DECAY_DATE":null,"MEAN_MOTION":"15.08835153","PERIAPSIS":"539.018","MEAN_ANOMALY":"262.4651","OBJECT_NAME":"STARLINK-4199","RCS_SIZE":"LARGE","MEAN_ELEMENT_THEORY":"SGP4","TLE_LINE2":"2 52857  53.2160 123.8682 0001073  97.6463 262.4651 15.08835153 57784","SITE":"AFETR"},{"TLE_LINE1":"1 52858U 22062AE  23180.16323845  .00001025  00000-0  82484-4 0  9994","EPOCH":"2023-06-29T03:55:03.802080","REF_FRAME":"TEME","CENTER_NAME":"EARTH","COUNTRY_CODE":"US","LAUNCH_DATE":"2022-06-17","EPHEMERIS_TYPE":"0","RA_OF_ASC_NODE":"123.8306","OBJECT_ID":"2022-062AE","ELEMENT_SET_NO":"999","DECAY_DATE":null,"MEAN_MOTION":"15.08839507","TLE_LINE2":"2 52858  53.2159 123.8306 0001017  88.7293 271.3815 15.08839507 57784","SITE":"AFETR","RCS_SIZE":"LARGE","MEAN_ELEMENT_THEORY":"SGP4","PERIAPSIS":"539.043","MEAN_ANOMALY":"271.3815","OBJECT_NAME":"STARLINK-4198","ARG_OF_PERICENTER":"88.7293","OBJECT_TYPE":"PAYLOAD","TIME_SYSTEM":"UTC","PERIOD":"95.438","MEAN_MOTION_DDOT":"0.0000000000000","FILE":"3945534","APOAPSIS":"540.450","REV_AT_EPOCH":"5778","NORAD_CAT_ID":"52858","INCLINATION":"53.2159","MEAN_MOTION_DOT":"0.00001025","ECCENTRICITY":"0.00010170","SEMIMAJOR_AXIS":"6917.882","GP_ID":"234619472","BSTAR":"0.00008248400000","CLASSIFICATION_TYPE":"U"}];
